start=new Date('2022-09-15T00:00:00.000Z').valueOf();
sats=[{"TLE_LINE2":"2 52002  53.2189 328.3262 0001597  60.0643 131.8756 15.08854205 30446","TIME_SYSTEM":"UTC","OBJECT_ID":"2022-025AY","SEMIMAJOR_AXIS":"6917.837","MEAN_ANOMALY":"131.8756","NORAD_CAT_ID":"52002","LAUNCH_DATE":"2022-03-09","OBJECT_TYPE":"PAYLOAD","CENTER_NAME":"EARTH","APOAPSIS":"540.807","MEAN_MOTION":"15.08854205","PERIOD":"95.437","TLE_LINE1":"1 52002U 22025AY  22257.91667824 -.00022899  00000-0 -14247-2 0  9993","SITE":"AFETR","ECCENTRICITY":"0.00015970","INCLINATION":"53.2189","MEAN_MOTION_DDOT":"0.0000000000000","MEAN_MOTION_DOT":"-0.00022899","BSTAR":"-0.00142470000000","GP_ID":"212585822","PERIAPSIS":"538.597","RA_OF_ASC_NODE":"328.3262","ARG_OF_PERICENTER":"60.0643","REV_AT_EPOCH":"3044","ELEMENT_SET_NO":"999","OBJECT_NAME":"STARLINK-3668","EPHEMERIS_TYPE":"0","COUNTRY_CODE":"US","CLASSIFICATION_TYPE":"U","EPOCH":"2022-09-14T22:00:00.999936","FILE":"3574077","MEAN_ELEMENT_THEORY":"SGP4","RCS_SIZE":"LARGE","REF_FRAME":"TEME","DECAY_DATE":null},{"BSTAR":"0.00524180000000","MEAN_MOTION_DOT":"0.00084054","PERIAPSIS":"538.925","GP_ID":"212613969","MEAN_MOTION_DDOT":"0.0000000000000","INCLINATION":"53.2178","SITE":"AFETR","TLE_LINE1":"1 52003U 22025AZ  22257.91667824  .00084054  00000-0  52418-2 0  9995","ECCENTRICITY":"0.00013340","MEAN_ELEMENT_THEORY":"SGP4","FILE":"3574287","EPOCH":"2022-09-14T22:00:00.999936","REF_FRAME":"TEME","DECAY_DATE":null,"RCS_SIZE":"LARGE","EPHEMERIS_TYPE":"0","COUNTRY_CODE":"US","CLASSIFICATION_TYPE":"U","ELEMENT_SET_NO":"999","OBJECT_NAME":"STARLINK-3654","REV_AT_EPOCH":"130","ARG_OF_PERICENTER":"70.5221","RA_OF_ASC_NODE":"328.3237","OBJECT_ID":"2022-025AZ","SEMIMAJOR_AXIS":"6917.983","TIME_SYSTEM":"UTC","TLE_LINE2":"2 52003  53.2178 328.3237 0001334  70.5221 141.3930 15.08806411  1303","CENTER_NAME":"EARTH","APOAPSIS":"540.771","PERIOD":"95.440","MEAN_MOTION":"15.08806411","LAUNCH_DATE":"2022-03-09","NORAD_CAT_ID":"52003","OBJECT_TYPE":"PAYLOAD","MEAN_ANOMALY":"141.3930"},{"MEAN_ANOMALY":"185.6174","NORAD_CAT_ID":"52088","LAUNCH_DATE":"2022-03-19","OBJECT_TYPE":"PAYLOAD","APOAPSIS":"341.254","CENTER_NAME":"EARTH","MEAN_MOTION":"15.76620072","PERIOD":"91.335","TIME_SYSTEM":"UTC","TLE_LINE2":"2 52088  53.2114 324.4485 0001826  24.4091 185.6174 15.76620072  1300","OBJECT_ID":"2022-029A","SEMIMAJOR_AXIS":"6718.162","REV_AT_EPOCH":"130","RA_OF_ASC_NODE":"324.4485","ARG_OF_PERICENTER":"24.4091","ELEMENT_SET_NO":"999","OBJECT_NAME":"STARLINK-3537","EPHEMERIS_TYPE":"0","COUNTRY_CODE":"US","CLASSIFICATION_TYPE":"U","EPOCH":"2022-09-14T22:00:00.999936","MEAN_ELEMENT_THEORY":"SGP4","FILE":"3574287","RCS_SIZE":"LARGE","REF_FRAME":"TEME","DECAY_DATE":null,"TLE_LINE1":"1 52088U 22029A   22257.91667824  .00511586  00000-0  29599-2 0  9991","SITE":"AFETR","ECCENTRICITY":"0.00018260","INCLINATION":"53.2114","MEAN_MOTION_DDOT":"0.0000000000000","MEAN_MOTION_DOT":"0.00511586","BSTAR":"0.00295990000000","PERIAPSIS":"338.800","GP_ID":"212613725"},{"OBJECT_NAME":"STARLINK-3722","ELEMENT_SET_NO":"999","ARG_OF_PERICENTER":"51.8779","RA_OF_ASC_NODE":"38.3196","REV_AT_EPOCH":"130","RCS_SIZE":"LARGE","REF_FRAME":"TEME","DECAY_DATE":null,"EPOCH":"2022-09-14T22:00:00.999936","FILE":"3574287","MEAN_ELEMENT_THEORY":"SGP4","CLASSIFICATION_TYPE":"U","EPHEMERIS_TYPE":"0","COUNTRY_CODE":"US","INCLINATION":"53.2176","ECCENTRICITY":"0.00016580","TLE_LINE1":"1 52089U 22029B   22257.91667824 -.00011890  00000-0 -73011-3 0  9996","SITE":"AFETR","PERIAPSIS":"538.591","GP_ID":"212614476","MEAN_MOTION_DOT":"-0.00011890","BSTAR":"-0.00073011000000","MEAN_MOTION_DDOT":"0.0000000000000","OBJECT_TYPE":"PAYLOAD","NORAD_CAT_ID":"52089","LAUNCH_DATE":"2022-03-19","MEAN_ANOMALY":"135.0961","MEAN_MOTION":"15.08842493","PERIOD":"95.437","APOAPSIS":"540.885","CENTER_NAME":"EARTH","SEMIMAJOR_AXIS":"6917.873","OBJECT_ID":"2022-029B","TIME_SYSTEM":"UTC","TLE_LINE2":"2 52089  53.2176  38.3196 0001658  51.8779 135.0961 15.08842493  1300"},{"PERIAPSIS":"538.700","GP_ID":"212614718","MEAN_MOTION_DOT":"0.00028631","BSTAR":"0.00181010000000","MEAN_MOTION_DDOT":"0.0000000000000","INCLINATION":"53.2169","ECCENTRICITY":"0.00015440","TLE_LINE1":"1 52090U 22029C   22257.91667824  .00028631  00000-0  18101-2 0  9995","SITE":"AFETR","RCS_SIZE":"LARGE","DECAY_DATE":null,"REF_FRAME":"TEME","EPOCH":"2022-09-14T22:00:00.999936","FILE":"3574287","MEAN_ELEMENT_THEORY":"SGP4","CLASSIFICATION_TYPE":"U","EPHEMERIS_TYPE":"0","COUNTRY_CODE":"US","OBJECT_NAME":"STARLINK-3712","ELEMENT_SET_NO":"999","ARG_OF_PERICENTER":"57.3110","RA_OF_ASC_NODE":"38.3250","REV_AT_EPOCH":"130","OBJECT_ID":"2022-029C","SEMIMAJOR_AXIS":"6917.903","TIME_SYSTEM":"UTC","TLE_LINE2":"2 52090  53.2169  38.3250 0001544  57.3110 189.6533 15.08832722  1303","MEAN_MOTION":"15.08832722","PERIOD":"95.438","APOAPSIS":"540.836","CENTER_NAME":"EARTH","OBJECT_TYPE":"PAYLOAD","NORAD_CAT_ID":"52090","LAUNCH_DATE":"2022-03-19","MEAN_ANOMALY":"189.6533"},{"OBJECT_NAME":"STARLINK-3713","ELEMENT_SET_NO":"999","REV_AT_EPOCH":"130","ARG_OF_PERICENTER":"37.8127","RA_OF_ASC_NODE":"38.3260","RCS_SIZE":"LARGE","REF_FRAME":"TEME","DECAY_DATE":null,"EPOCH":"2022-09-14T22:00:00.999936","FILE":"3574287","MEAN_ELEMENT_THEORY":"SGP4","CLASSIFICATION_TYPE":"U","EPHEMERIS_TYPE":"0","COUNTRY_CODE":"US","INCLINATION":"53.2183","ECCENTRICITY":"0.00017990","TLE_LINE1":"1 52091U 22029D   22257.91667824  .00030009  00000-0  18966-2 0  9997","SITE":"AFETR","GP_ID":"212613478","PERIAPSIS":"538.561","MEAN_MOTION_DOT":"0.00030009","BSTAR":"0.00189660000000","MEAN_MOTION_DDOT":"0.0000000000000","OBJECT_TYPE":"PAYLOAD","NORAD_CAT_ID":"52091","LAUNCH_DATE":"2022-03-19","MEAN_ANOMALY":"169.1577","MEAN_MOTION":"15.08820351","PERIOD":"95.439","CENTER_NAME":"EARTH","APOAPSIS":"541.050","SEMIMAJOR_AXIS":"6917.940","OBJECT_ID":"2022-029D","TLE_LINE2":"2 52091  53.2183  38.3260 0001799  37.8127 169.1577 15.08820351  1300","TIME_SYSTEM":"UTC"},{"TLE_LINE2":"2 52092  53.2176  38.3310 0001806  47.5247 179.4665 15.08827601  1306","TIME_SYSTEM":"UTC","OBJECT_ID":"2022-029E","SEMIMAJOR_AXIS":"6917.918","APOAPSIS":"541.033","CENTER_NAME":"EARTH","PERIOD":"95.438","MEAN_MOTION":"15.08827601","MEAN_ANOMALY":"179.4665","LAUNCH_DATE":"2022-03-19","NORAD_CAT_ID":"52092","OBJECT_TYPE":"PAYLOAD","MEAN_MOTION_DDOT":"0.0000000000000","BSTAR":"0.00175510000000","MEAN_MOTION_DOT":"0.00027745","GP_ID":"212613226","PERIAPSIS":"538.534","SITE":"AFETR","TLE_LINE1":"1 52092U 22029E   22257.91667824  .00027745  00000-0  17551-2 0  9990","ECCENTRICITY":"0.00018060","INCLINATION":"53.2176","COUNTRY_CODE":"US","EPHEMERIS_TYPE":"0","CLASSIFICATION_TYPE":"U","MEAN_ELEMENT_THEORY":"SGP4","FILE":"3574287","EPOCH":"2022-09-14T22:00:00.999936","DECAY_DATE":null,"REF_FRAME":"TEME","RCS_SIZE":"LARGE","ARG_OF_PERICENTER":"47.5247","RA_OF_ASC_NODE":"38.3310","REV_AT_EPOCH":"130","ELEMENT_SET_NO":"999","OBJECT_NAME":"STARLINK-3716"},{"ECCENTRICITY":"0.00016690","SITE":"AFETR","TLE_LINE1":"1 52093U 22029F   22257.91667824  .00024638  00000-0  15615-2 0  9998","INCLINATION":"53.2179","MEAN_MOTION_DDOT":"0.0000000000000","GP_ID":"212613977","PERIAPSIS":"538.649","BSTAR":"0.00156150000000","MEAN_MOTION_DOT":"0.00024638","ARG_OF_PERICENTER":"58.5748","REV_AT_EPOCH":"130","RA_OF_ASC_NODE":"38.3427","OBJECT_NAME":"STARLINK-3673","ELEMENT_SET_NO":"999","CLASSIFICATION_TYPE":"U","COUNTRY_CODE":"US","EPHEMERIS_TYPE":"0","REF_FRAME":"TEME","DECAY_DATE":null,"RCS_SIZE":"LARGE","MEAN_ELEMENT_THEORY":"SGP4","FILE":"3574287","EPOCH":"2022-09-14T22:00:00.999936","TLE_LINE2":"2 52093  53.2179  38.3427 0001669  58.5748 228.3978 15.08820941  1305","TIME_SYSTEM":"UTC","SEMIMAJOR_AXIS":"6917.939","OBJECT_ID":"2022-029F","MEAN_ANOMALY":"228.3978","OBJECT_TYPE":"PAYLOAD","LAUNCH_DATE":"2022-03-19","NORAD_CAT_ID":"52093","PERIOD":"95.439","MEAN_MOTION":"15.08820941","APOAPSIS":"540.958","CENTER_NAME":"EARTH"},{"NORAD_CAT_ID":"52094","LAUNCH_DATE":"2022-03-19","OBJECT_TYPE":"PAYLOAD","MEAN_ANOMALY":"215.5878","APOAPSIS":"540.905","CENTER_NAME":"EARTH","MEAN_MOTION":"15.08825834","PERIOD":"95.438","SEMIMAJOR_AXIS":"6917.924","OBJECT_ID":"2022-029G","TLE_LINE2":"2 52094  53.2182  38.3304 0001613  51.3412 215.5878 15.08825834  1305","TIME_SYSTEM":"UTC","ELEMENT_SET_NO":"999","OBJECT_NAME":"STARLINK-3714","ARG_OF_PERICENTER":"51.3412","RA_OF_ASC_NODE":"38.3304","REV_AT_EPOCH":"130","EPOCH":"2022-09-14T22:00:00.999936","FILE":"3574287","MEAN_ELEMENT_THEORY":"SGP4","RCS_SIZE":"LARGE","DECAY_DATE":null,"REF_FRAME":"TEME","EPHEMERIS_TYPE":"0","COUNTRY_CODE":"US","CLASSIFICATION_TYPE":"U","INCLINATION":"53.2182","TLE_LINE1":"1 52094U 22029G   22257.91667824  .00026078  00000-0  16512-2 0  9996","SITE":"AFETR","ECCENTRICITY":"0.00016130","MEAN_MOTION_DOT":"0.00026078","BSTAR":"0.00165120000000","GP_ID":"212614219","PERIAPSIS":"538.673","MEAN_MOTION_DDOT":"0.0000000000000"},{"CENTER_NAME":"EARTH","APOAPSIS":"540.965","MEAN_MOTION":"15.08826555","PERIOD":"95.438","MEAN_ANOMALY":"272.4521","NORAD_CAT_ID":"52095","LAUNCH_DATE":"2022-03-19","OBJECT_TYPE":"PAYLOAD","TLE_LINE2":"2 52095  53.2172  38.3424 0001703  54.4910 272.4521 15.08826555  1303","TIME_SYSTEM":"UTC","SEMIMAJOR_AXIS":"6917.921","OBJECT_ID":"2022-029H","EPHEMERIS_TYPE":"0","COUNTRY_CODE":"US","CLASSIFICATION_TYPE":"U","EPOCH":"2022-09-14T22:00:00.999936","FILE":"3574287","MEAN_ELEMENT_THEORY":"SGP4","RCS_SIZE":"LARGE","DECAY_DATE":null,"REF_FRAME":"TEME","REV_AT_EPOCH":"130","RA_OF_ASC_NODE":"38.3424","ARG_OF_PERICENTER":"54.4910","ELEMENT_SET_NO":"999","OBJECT_NAME":"STARLINK-3701","MEAN_MOTION_DDOT":"0.0000000000000","MEAN_MOTION_DOT":"0.00025084","BSTAR":"0.00158910000000","PERIAPSIS":"538.608","GP_ID":"212612979","TLE_LINE1":"1 52095U 22029H   22257.91667824  .00025084  00000-0  15891-2 0  9992","SITE":"AFETR","ECCENTRICITY":"0.00017030","INCLINATION":"53.2172"}];
